{"fetched_at":"2026-03-29T02:12:04Z","count":15717,"tles":[{"name":"STARLINK-11203 [DTC]","line1":"1 60117U 24118E   26087.54555502  .00013346  00000+0  11472-3 0  9999","line2":"2 60117  53.1577 128.3971 0001112 103.4949 256.6193 15.69736533100956","category":"Starlink"}]}