{
  "norad_id": 60117,
  "name": "STARLINK-11203 [DTC]",
  "history": [
    {
      "epoch": "2026-03-28T13:05:35.952864Z",
      "apogee_km": 360.400066205616,
      "perigee_km": 358.9015821935136,
      "latitude_deg": 1.5537954189766832e-05,
      "longitude_deg": 106.03284863328415,
      "height_km": 360.73910295197965,
      "semi_major_axis_km": 6737.787824199564,
      "eccentricity": 0.0001112,
      "inclination_deg": 53.1577,
      "raan_deg": 128.3971,
      "arg_perigee_deg": 103.4949,
      "mean_anomaly_deg": 256.6193,
      "mean_motion_rev_day": 15.69736533
    }
  ]
}